OBJECT_NAME,OBJECT_ID,EPOCH,MEAN_MOTION,ECCENTRICITY,INCLINATION,RA_OF_ASC_NODE,ARG_OF_PERICENTER,MEAN_ANOMALY,EPHEMERIS_TYPE,CLASSIFICATION_TYPE,NORAD_CAT_ID,ELEMENT_SET_NO,REV_AT_EPOCH,BSTAR,MEAN_MOTION_DOT,MEAN_MOTION_DDOT
LEMUR-1,2014-033AL,2026-07-17T21:05:27.205440,14.85341275,.00475062,97.7912,348.0098,339.0298,20.8968,0,U,40044,999,65002,.88758666E-4,.722E-5,0
LEMUR-2-GREENBERG,2017-042N,2026-07-17T11:07:13.333728,15.32196006,.0007286,97.3832,18.9701,249.8308,110.2151,0,U,42837,999,49302,.3003E-3,.9265E-4,0
LEMUR-2-ANDIS,2017-042P,2026-07-17T22:36:08.323200,15.35993587,.00073256,97.3687,19.7422,246.7167,113.3306,0,U,42838,999,49317,.35163533E-3,.12258E-3,0
LEMUR-2-MONSON,2017-042Q,2026-07-17T11:21:11.831904,15.28788408,.0005447,97.4093,18.9043,235.4032,124.6694,0,U,42839,999,49279,.26317E-3,.7291E-4,0
LEMUR-2-FURIAUS,2017-042R,2026-07-17T22:26:45.156768,15.31185432,.00057566,97.3784,17.3261,317.6952,42.3844,0,U,42840,999,49291,.31801412E-3,.9509E-4,0
LEMUR-2-PETERG,2017-042S,2026-07-17T22:39:42.685056,15.35090809,.00034733,97.3997,24.0528,208.7631,151.3422,0,U,42841,999,49315,.32678133E-3,.11052E-3,0
LEMUR-2-DEMBITZ,2017-042T,2026-07-17T05:40:03.761760,15.31146418,.0005078,97.3830,19.6761,264.8229,95.2433,0,U,42842,999,49294,.29729E-3,.8872E-4,0
LEMUR-2-ZACHARY,2017-042W,2026-07-17T19:45:29.229408,15.52880963,.00027286,97.3574,31.1688,232.2170,127.8837,0,U,42845,999,49395,.52616192E-3,.32659E-3,0
LEMUR-2-AMANDA-SVANTE,2021-034B,2026-07-17T20:40:04.846944,15.36062044,.00046799,97.5746,277.9949,136.5026,223.6587,0,U,48269,999,28576,.52959896E-3,.18546E-3,0
LEMUR-2-SPECIAL-K,2021-034F,2026-07-17T19:27:52.161696,15.75648684,.00062746,97.5642,288.1363,213.2300,146.8571,0,U,48273,999,28649,.11131553E-2,.172877E-2,0
LEMUR-2-EMBRIONOVIS,2023-084AQ,2026-07-17T21:53:27.068640,15.38274237,.00085829,97.6330,344.3137,196.0880,164.0093,0,U,56970,999,17240,.21443027E-3,.8008E-4,0
LEMUR-2-DEVERILL-M-T,2023-100F,2026-07-17T13:38:14.870688,15.41163271,.0004715,99.4446,246.1369,287.0289,73.0435,0,U,57391,999,16592,.33582E-3,.13814E-3,0
LEMUR-2-BASS,2023-174D,2026-07-17T19:23:38.763456,15.44047545,.00075007,97.3843,283.9689,70.2328,289.9728,0,U,58259,999,15008,.21474844E-3,.9724E-4,0
LEMUR-2-JK0903EM1407,2023-174CJ,2026-07-17T19:47:56.756544,15.53156673,.00033659,97.3921,290.1925,23.2594,336.8811,0,U,58336,999,15048,.25490398E-3,.15897E-3,0
LEMUR-2-MJR092620,2023-174CN,2026-07-17T20:23:46.594176,15.45922341,.00050762,97.3972,289.4672,20.9048,339.2408,0,U,58340,999,15038,.22823625E-3,.11019E-3,0
LEMUR-2-NIMBUS2000,2024-022A,2026-07-17T12:59:04.520256,15.41176180,.000852,97.4077,48.9446,20.8268,339.3324,0,U,58899,999,13694,.28409E-3,.11714E-3,0
LEMUR-2-VALHALLA,2024-022B,2026-07-17T13:07:27.983424,15.40531219,.0008965,97.4075,48.9180,16.2163,343.9368,0,U,58900,999,13694,.21353E-3,.8595E-4,0
LEMUR-2-CAEL,2024-022E,2026-07-17T12:43:43.860864,15.41903062,.0006839,97.4057,49.8920,1.1188,359.0073,0,U,58903,999,13701,.21963E-3,.9251E-4,0
LEMUR-2-JOHNNYTRUONG,2024-043BA,2026-07-17T21:46:42.627648,15.62709855,.00039327,97.5403,352.5709,86.3859,273.7848,0,U,59146,999,13283,.31237698E-3,.27939E-3,0
LEMUR-2-TOMATOKECHUP,2024-149D,2026-07-17T18:49:37.650720,15.36614025,.00033934,97.3792,280.9209,117.3320,242.8270,0,U,60471,999,10686,.16234928E-3,.5722E-4,0
LEMUR-2-STELLA,2024-149BT,2026-07-17T04:34:57.477792,15.12393884,.00012249,97.6732,280.7889,121.9085,238.2264,0,U,60533,999,10503,.34171112E-3,.5866E-4,0
LEMUR-2-MARHISYAM,2024-149BW,2026-07-17T18:40:47.591904,15.11805944,.0002282,97.6874,281.8587,64.9251,295.2216,0,U,60536,999,10510,.32727569E-3,.5523E-4,0
LEMUR-2-AHMED-ASRAR,2024-149DN,2026-07-17T18:46:24.279744,15.13339294,.00014427,97.7001,284.0760,194.6012,165.5177,0,U,60576,999,10519,.35888334E-3,.6329E-4,0
LEMUR-2-LLOYD,2024-149DP,2026-07-17T19:11:35.316384,15.09775900,.00045204,97.6737,279.9556,65.7509,294.4192,0,U,60577,999,10501,.26942304E-3,.4286E-4,0
LEMUR-2-SQUIRRELCOMM,2024-149DQ,2026-07-17T11:03:00.421056,15.07457788,.0004033,97.6703,279.2816,316.9896,43.1016,0,U,60578,999,10496,.16679E-3,.2465E-4,0
LEMUR-2-SIERRINI,2024-149DR,2026-07-17T11:26:24.384768,15.11538566,.0006386,97.6836,281.2142,85.0986,275.0973,0,U,60579,999,10503,.3027E-3,.5067E-4,0
LEMUR-2-WILSON,2025-009CP,2026-07-17T16:16:05.056320,14.95280611,.00018175,97.7018,276.6080,310.1004,50.0058,0,U,62694,999,8191,.8192897E-4,.845E-5,0
LEMUR-2-STAR-FOX,2025-009CR,2026-07-17T04:34:53.327136,15.02855199,.00019867,97.6903,279.5841,34.7534,325.3820,0,U,62696,999,8206,.26998749E-3,.3558E-4,0
LEMUR-2-ARIANNA,2025-009CU,2026-07-17T04:32:40.632288,15.02857687,.00023394,97.6845,279.3334,42.8979,317.2428,0,U,62699,999,8206,.28272678E-3,.3729E-4,0
LEMUR-2-ALISIA,2025-009DB,2026-07-17T11:51:31.873824,15.03194149,.000459,97.6967,280.4652,122.6603,237.5065,0,U,62706,999,10471,.28718E-3,.3823E-4,0
